UNKNOWN                 
1 81052U          25275.09813045  .00023438  00000+0  63342-2 0  9996
2 81052  65.7720 210.1831 0565166 342.2992  15.9062 13.81603992590415
UNKNOWN                 
1 81069U          25274.45796570  .00006487  00000+0  86707-2 0  9991
2 81069 100.3799 171.2528 0061259 226.1775 133.4288 13.59827838506109
UNKNOWN                 
1 81078U          25270.74854329  .00000156  00000+0  58911-2 0  9999
2 81078  65.1153  19.4237 0171436  23.2046 129.1631 11.22449016486092
UNKNOWN                 
1 81111U          25276.44625194  .00025515  00000+0  53259-2 0  9992
2 81111  62.8718  85.1394 3874962 354.5081   2.2708  7.53089477266644
UNKNOWN                 
1 81134U          25259.03154262  .00000097  00000+0  33135-3 0  9996
2 81134  90.2550   2.0283 0024901 257.4986 102.3346 12.92948225451274
UNKNOWN                 
1 81161U          25275.26139901  .00001755  00000+0  18561-2 0  9999
2 81161 100.4259 110.7253 0061581 102.4535 258.3511 13.75334747546307
UNKNOWN                 
1 81219U          25274.65378255  .00001234  00000+0  11389-2 0  9995
2 81219  82.9241  60.2778 0021822  61.1681 299.1666 13.81695094597564
UNKNOWN                 
1 81228U          25273.74769026  .00019253  00000+0  60252-2 0  9997
2 81228  70.5223  80.3500 0062516 113.5303 247.2414 14.39541417615582
UNKNOWN                 
1 81279U          25274.89344745  .00002993  00000+0  11582-2 0  9992
2 81279  98.1388 340.0702 0207353 235.2939 122.8552 14.19654618452400
UNKNOWN                 
1 81301U          25275.31704350  .00000417  00000+0  48426-3 0  9995
2 81301  66.7565 106.4553 0095623 277.2375 262.6297 13.76641510596527
UNKNOWN                 
1 81311U          25265.91469697  .00001079  00000+0  22795-3 0  9999
2 81311  98.7451 319.3259 0131964  12.0624 167.7339 14.56343664627824
UNKNOWN                 
1 81317U          25265.55358201  .00000078  00000+0  23827-3 0  9998
2 81317  67.1400 355.3696 0206011  92.3438 289.5972 13.37961175577774
UNKNOWN                 
1 81323U          25266.23724836  .00044412  00000+0  61914-2 0  9990
2 81323  65.7520 253.5731 0352076 355.6749   4.1322 14.42906774101426
UNKNOWN                 
1 81329U          25275.04663922  .00004084  00000+0  15261-2 0  9998
2 81329  65.8223 294.0656 0828439  62.7329 305.5613 13.21655641568608
UNKNOWN                 
1 81341U          25276.31287883 -.00004342  00000+0 -10543-1 0  9997
2 81341  99.4865 228.3741 0390239 312.5000  44.3741 12.96864255514296
UNKNOWN                 
1 81343U          25276.34041895  .00015528  00000+0  11657-2 0  9997
2 81343  85.8682 236.9274 0011116 137.0063 223.2040 15.02476262443741
UNKNOWN                 
1 81359U          25276.24425629  .00002331  00000+0  22606-2 0  9998
2 81359  66.7982 220.6920 0111125  10.1932 350.1356 13.78665076595768
UNKNOWN                 
1 81366U          25274.29172355  .00001789  00000+0  66151-3 0  9994
2 81366  65.8820 243.3925 0711661 117.0695 250.4782 13.44895001 56211
UNKNOWN                 
1 81371U          25275.50194268  .00011153  00000+0  18208-2 0  9997
2 81371  98.8151   6.2550 0071191 225.7547 133.7799 14.69405272631372
UNKNOWN                 
1 81386U          25273.40105233  .00009908  00000+0  33301-2 0  9990
2 81386  71.0474 155.4849 0092389 203.4487 156.2423 14.34924458613711
UNKNOWN                 
1 81390U          25274.92499809 -.00000334  00000+0 -21240-2 0  9993
2 81390 103.1047 158.8619 0175301 273.1776  84.9237 12.35694667491227
UNKNOWN                 
1 81392U          25274.72559478  .00006632  00000+0  62892-2 0  9995
2 81392 100.3921 255.7512 0035164 221.9805 318.9418 13.81043664592235
UNKNOWN                 
1 81405U          25275.94721626  .00002897  00000+0  22080-2 0  9995
2 81405  99.4763 322.9867 0160171  53.6491 307.9328 13.88574924551979
UNKNOWN                 
1 81406U          25273.75014331  .00003374  00000+0  13900-2 0  9993
2 81406  65.8063 318.9651 0863616 352.0049   6.7917 13.11550645524108
UNKNOWN                 
1 81427U          25269.62112738  .00001524  00000+0  91361-3 0  9990
2 81427  98.7549 154.2254 0083477 255.8890 103.2992 14.06741277540920
UNKNOWN                 
1 81438U          25274.35593822  .00004595  00000+0  67812-2 0  9999
2 81438 100.3039 143.0096 0049501 263.5432  96.0065 13.54136619582144
UNKNOWN                 
1 81439U          25276.30583736  .00000484  00000+0  14583-2 0  9990
2 81439  67.1586 278.0097 0609382 246.4379 107.1516 12.62592666253002
UNKNOWN                 
1 81449U          25276.18265843  .00118582  00000+0  12111-1 0  9996
2 81449  66.7971 195.5004 0033931 197.4872 162.5092 14.89436040623011
UNKNOWN                 
1 81478U          25276.27295485  .00007706  00000+0  28192-2 0  9995
2 81478  98.9443 186.4443 0146011 202.2568 290.4888 14.27427442612886
UNKNOWN                 
1 81488U          25276.41228949  .00000551  00000+0  84181-3 0  9995
2 81488 100.0099 148.0011 0044223 173.4699   8.9725 13.56469764587090
UNKNOWN                 
1 81497U          25265.45501946  .00005200  00000+0  47680-2 0  9996
2 81497 100.3013 152.4357 0026475 226.1767 314.5658 13.83267501205051
UNKNOWN                 
1 81499U          25275.48524403  .00006442  00000+0  17942-2 0  9992
2 81499  74.0518 354.0815 0000513   5.4395 354.6769 14.46533959472113
UNKNOWN                 
1 81535U          25276.48699044  .00002084  00000+0  87287-3 0  9996
2 81535  98.2046   4.4517 0235417 352.2476   7.5084 14.13148819377477
UNKNOWN                 
1 81536U          25274.35263801  .00000838  00000+0  53845-2 0  9996
2 81536 101.9549 134.5956 0029306  36.2946 143.0198 12.55741070542725
UNKNOWN                 
1 81537U          25276.65459254  .00000576  00000+0  36203-3 0  9990
2 81537  71.0384 254.2344 0079874 258.5212 100.6929 14.07021484610604
UNKNOWN                 
1 81552U          25261.30961254  .00000995  00000+0  22327-2 0  9997
2 81552  99.0586 199.7667 0255850 222.8303 135.2631 13.17937176567992
UNKNOWN                 
1 81599U          25273.74987968  .00000680  00000+0  13060-2 0  9994
2 81599  67.3012  78.8375 0250853 137.8864 247.5352 13.31330444575361
UNKNOWN                 
1 81605U          25274.64851594  .00000558  00000+0  26968-2 0  9992
2 81605  56.4366  57.7512 0167720  38.5255 322.7505 12.81145672176960
UNKNOWN                 
1 81614U          25269.26208707  .00006612  00000+0  41487-1 0  9995
2 81614 101.8547 267.5381 0369505 298.0104  58.4039 12.36130495528404
UNKNOWN                 
1 81615U          25274.60017140  .00003311  00000+0  11565-2 0  9997
2 81615  65.8252 230.1759 0779844 170.2266 191.5008 13.33525660573240
UNKNOWN                 
1 81617U          25275.42551745  .00000628  00000+0  39863-2 0  9993
2 81617 101.2611  92.9869 0036553  16.0616 344.1611 12.57461717544141
UNKNOWN                 
1 81624U          25265.61760420  .00010516  00000+0  17160-2 0  9996
2 81624  66.9793  30.7760 0074283 298.2760  61.0877 14.69389918627781
UNKNOWN                 
1 81640U          25276.45660053  .00000595  00000+0  60538-3 0  9993
2 81640  65.8247 275.5416 0976252 106.5551 264.4852 12.57140740501241
UNKNOWN                 
1 81652U          25276.14265015  .00001103  00000+0  13413-2 0  9996
2 81652 102.1512 149.9943 0365020 157.4966 354.4131 13.44223013569160
UNKNOWN                 
1 81667U          25276.44871129  .00005975  00000+0  16332-2 0  9998
2 81667  74.0414 168.0289 0014653 124.0279 236.2274 14.47392988446474
UNKNOWN                 
1 81674U          25274.05109750  .00001961  00000+0  11570-2 0  9995
2 81674  66.8229 187.2665 0034204 271.6760 107.7451 14.09656053603472
UNKNOWN                 
1 81683U          25276.28753901  .00010457  00000+0  23283-2 0  9999
2 81683  81.2200   9.6264 0025873 152.3495 207.9084 14.56653380625602
UNKNOWN                 
1 81693U          25275.13171742  .00002045  00000+0  14682-1 0  9996
2 81693 101.0841 344.4491 0385702 217.8367 139.4997 12.25833479958998
UNKNOWN                 
1 81745U          25274.47437090  .00007320  00000+0  23461-2 0  9998
2 81745  71.0013 185.6229 0007120 308.4902  51.5595 14.39779576619349
UNKNOWN                 
1 81749U          25274.35813043  .00000154  00000+0  64986-3 0  9991
2 81749  99.6948 314.5820 0369570   8.8996   3.0787 12.77575986552766
UNKNOWN                 
1 81775U          25276.00271495  .00012226  00000+0  39111-2 0  9997
2 81775  82.9171 282.8509 0021215 106.1752 254.1777 14.39395627615098
UNKNOWN                 
1 81792U          25275.23843107  .00006844  00000+0  24101-2 0  9997
2 81792  65.8237 256.5000 0897278 313.8721  39.1457 13.10487647 70663
UNKNOWN                 
1 81812U          25276.65945124  .00005572  00000+0  34198-1 0  9992
2 81812 103.8123 179.2202 0374761 354.5488   5.1547 12.37445866531892
UNKNOWN                 
1 81816U          25276.55141107  .00001242  00000+0  95678-3 0  9996
2 81816  66.2369 111.0784 0179278 284.8310  73.2965 13.89125461599599
UNKNOWN                 
1 81819U          25276.25335009  .00001047  00000+0  74112-2 0  9994
2 81819 102.1715  12.4396 0035948 243.9401 115.7963 12.47490868539225
UNKNOWN                 
1 81824U          25273.99539340  .00013040  00000+0  46300-2 0  9996
2 81824  65.8432 175.7275 0033361   3.9799 356.1553 14.34294492614157
UNKNOWN                 
1 81833U          25276.66078698  .00000275  00000+0  97233-3 0  9995
2 81833  90.2463   1.3643 0027951 202.6091 157.3798 12.93687982443455
UNKNOWN                 
1 81838U          25259.02806890  .00005645  00000+0  13092-2 0  9990
2 81838  67.7607 135.2991 0034231 101.7456 324.7467 14.55293198620569
UNKNOWN                 
1 81844U          25276.14420699  .00009997  00000+0  36439-2 0  9992
2 81844  82.9126 340.3275 0062321  11.2578 348.9987 14.31933638612780
